[{"OBJECT_NAME":"HST","OBJECT_ID":"1990-037B","EPOCH":"2026-03-04T03:14:53.334528","MEAN_MOTION":15.29378725,"ECCENTRICITY":0.00017249,"INCLINATION":28.4703,"RA_OF_ASC_NODE":77.887,"ARG_OF_PERICENTER":70.3509,"MEAN_ANOMALY":289.7272,"EPHEMERIS_TYPE":0,"CLASSIFICATION_TYPE":"U","NORAD_CAT_ID":20580,"ELEMENT_SET_NO":999,"REV_AT_EPOCH":77246,"BSTAR":0.0003438249,"MEAN_MOTION_DOT":0.00010319,"MEAN_MOTION_DDOT":0},{"OBJECT_NAME":"POLAR","OBJECT_ID":"1996-013A","EPOCH":"2026-03-02T17:54:40.016736","MEAN_MOTION":1.29845818,"ECCENTRICITY":0.6362278,"INCLINATION":79.7411,"RA_OF_ASC_NODE":228.2678,"ARG_OF_PERICENTER":212.6879,"MEAN_ANOMALY":83.6731,"EPHEMERIS_TYPE":0,"CLASSIFICATION_TYPE":"U","NORAD_CAT_ID":23802,"ELEMENT_SET_NO":999,"REV_AT_EPOCH":14347,"BSTAR":0,"MEAN_MOTION_DOT":1.78e-6,"MEAN_MOTION_DDOT":0},{"OBJECT_NAME":"SWAS","OBJECT_ID":"1998-071A","EPOCH":"2026-03-04T15:05:56.423328","MEAN_MOTION":15.08836294,"ECCENTRICITY":0.0003623,"INCLINATION":69.8966,"RA_OF_ASC_NODE":137.0023,"ARG_OF_PERICENTER":21.1508,"MEAN_ANOMALY":338.9805,"EPHEMERIS_TYPE":0,"CLASSIFICATION_TYPE":"U","NORAD_CAT_ID":25560,"ELEMENT_SET_NO":999,"REV_AT_EPOCH":48149,"BSTAR":0.00041448,"MEAN_MOTION_DOT":6.44e-5,"MEAN_MOTION_DDOT":0},{"OBJECT_NAME":"CXO","OBJECT_ID":"1999-040B","EPOCH":"2026-03-07T05:51:16.435872","MEAN_MOTION":0.37807298,"ECCENTRICITY":0.7997895,"INCLINATION":54.5001,"RA_OF_ASC_NODE":119.7161,"ARG_OF_PERICENTER":310.7431,"MEAN_ANOMALY":0.4039,"EPHEMERIS_TYPE":0,"CLASSIFICATION_TYPE":"U","NORAD_CAT_ID":25867,"ELEMENT_SET_NO":999,"REV_AT_EPOCH":1694,"BSTAR":0,"MEAN_MOTION_DOT":8.3e-6,"MEAN_MOTION_DDOT":0},{"OBJECT_NAME":"XMM-NEWTON","OBJECT_ID":"1999-066A","EPOCH":"2026-03-02T15:24:13.123584","MEAN_MOTION":0.50131664,"ECCENTRICITY":0.47125523,"INCLINATION":65.0189,"RA_OF_ASC_NODE":284.3763,"ARG_OF_PERICENTER":66.813,"MEAN_ANOMALY":359.9781,"EPHEMERIS_TYPE":0,"CLASSIFICATION_TYPE":"U","NORAD_CAT_ID":25989,"ELEMENT_SET_NO":999,"REV_AT_EPOCH":2247,"BSTAR":0,"MEAN_MOTION_DOT":6.2e-7,"MEAN_MOTION_DDOT":0},{"OBJECT_NAME":"TERRA","OBJECT_ID":"1999-068A","EPOCH":"2026-03-04T18:50:13.172352","MEAN_MOTION":14.61008869,"ECCENTRICITY":0.0002392,"INCLINATION":97.9602,"RA_OF_ASC_NODE":117.4068,"ARG_OF_PERICENTER":163.1129,"MEAN_ANOMALY":261.5498,"EPHEMERIS_TYPE":0,"CLASSIFICATION_TYPE":"U","NORAD_CAT_ID":25994,"ELEMENT_SET_NO":999,"REV_AT_EPOCH":39436,"BSTAR":0.00013779,"MEAN_MOTION_DOT":6.31e-6,"MEAN_MOTION_DDOT":0},{"OBJECT_NAME":"CLUSTER II-FM7 (SAMBA)","OBJECT_ID":"2000-041A","EPOCH":"2026-03-04T06:04:28.507872","MEAN_MOTION":0.44785609,"ECCENTRICITY":0.89087774,"INCLINATION":148.992,"RA_OF_ASC_NODE":34.5676,"ARG_OF_PERICENTER":250.6745,"MEAN_ANOMALY":359.7226,"EPHEMERIS_TYPE":0,"CLASSIFICATION_TYPE":"U","NORAD_CAT_ID":26410,"ELEMENT_SET_NO":999,"REV_AT_EPOCH":1983,"BSTAR":0,"MEAN_MOTION_DOT":3.639e-5,"MEAN_MOTION_DDOT":0},{"OBJECT_NAME":"CLUSTER II-FM8 (TANGO)","OBJECT_ID":"2000-045B","EPOCH":"2026-02-18T01:30:32.809536","MEAN_MOTION":0.44405995,"ECCENTRICITY":0.88900451,"INCLINATION":149.0711,"RA_OF_ASC_NODE":33.5376,"ARG_OF_PERICENTER":249.457,"MEAN_ANOMALY":359.4916,"EPHEMERIS_TYPE":0,"CLASSIFICATION_TYPE":"U","NORAD_CAT_ID":26464,"ELEMENT_SET_NO":999,"REV_AT_EPOCH":1976,"BSTAR":0,"MEAN_MOTION_DOT":4.776e-5,"MEAN_MOTION_DDOT":0},{"OBJECT_NAME":"ODIN","OBJECT_ID":"2001-007A","EPOCH":"2026-03-04T01:49:33.030336","MEAN_MOTION":15.58021445,"ECCENTRICITY":0.00040972,"INCLINATION":97.4079,"RA_OF_ASC_NODE":98.8926,"ARG_OF_PERICENTER":154.0262,"MEAN_ANOMALY":206.12,"EPHEMERIS_TYPE":0,"CLASSIFICATION_TYPE":"U","NORAD_CAT_ID":26702,"ELEMENT_SET_NO":999,"REV_AT_EPOCH":37296,"BSTAR":0.00077726852,"MEAN_MOTION_DOT":0.00058508,"MEAN_MOTION_DDOT":0},{"OBJECT_NAME":"TIMED","OBJECT_ID":"2001-055B","EPOCH":"2026-03-04T11:50:23.033760","MEAN_MOTION":14.95004039,"ECCENTRICITY":0.00029766,"INCLINATION":74.066,"RA_OF_ASC_NODE":85.7795,"ARG_OF_PERICENTER":281.4853,"MEAN_ANOMALY":78.5997,"EPHEMERIS_TYPE":0,"CLASSIFICATION_TYPE":"U","NORAD_CAT_ID":26998,"ELEMENT_SET_NO":999,"REV_AT_EPOCH":31517,"BSTAR":0.00018293277,"MEAN_MOTION_DOT":1.962e-5,"MEAN_MOTION_DDOT":0},{"OBJECT_NAME":"CORIOLIS","OBJECT_ID":"2003-001A","EPOCH":"2026-03-04T11:38:33.603360","MEAN_MOTION":14.19910551,"ECCENTRICITY":0.00145432,"INCLINATION":98.7161,"RA_OF_ASC_NODE":71.957,"ARG_OF_PERICENTER":150.8057,"MEAN_ANOMALY":209.3936,"EPHEMERIS_TYPE":0,"CLASSIFICATION_TYPE":"U","NORAD_CAT_ID":27640,"ELEMENT_SET_NO":999,"REV_AT_EPOCH":19936,"BSTAR":0.00012316789,"MEAN_MOTION_DOT":2.18e-6,"MEAN_MOTION_DDOT":0},{"OBJECT_NAME":"SORCE","OBJECT_ID":"2003-004A","EPOCH":"2026-03-04T13:59:41.275104","MEAN_MOTION":15.03051755,"ECCENTRICITY":0.0016533,"INCLINATION":39.9904,"RA_OF_ASC_NODE":138.2071,"ARG_OF_PERICENTER":16.5443,"MEAN_ANOMALY":343.5888,"EPHEMERIS_TYPE":0,"CLASSIFICATION_TYPE":"U","NORAD_CAT_ID":27651,"ELEMENT_SET_NO":999,"REV_AT_EPOCH":25615,"BSTAR":0.00035679,"MEAN_MOTION_DOT":4.757e-5,"MEAN_MOTION_DDOT":0},{"OBJECT_NAME":"MOST","OBJECT_ID":"2003-031D","EPOCH":"2026-03-04T11:02:33.878112","MEAN_MOTION":14.21297664,"ECCENTRICITY":0.00096486,"INCLINATION":98.7082,"RA_OF_ASC_NODE":72.6337,"ARG_OF_PERICENTER":188.6944,"MEAN_ANOMALY":171.4068,"EPHEMERIS_TYPE":0,"CLASSIFICATION_TYPE":"U","NORAD_CAT_ID":27843,"ELEMENT_SET_NO":999,"REV_AT_EPOCH":17583,"BSTAR":8.0426382e-5,"MEAN_MOTION_DOT":1.32e-6,"MEAN_MOTION_DDOT":0},{"OBJECT_NAME":"SCISAT 1","OBJECT_ID":"2003-036A","EPOCH":"2026-03-04T08:20:36.501216","MEAN_MOTION":14.81299784,"ECCENTRICITY":0.00058755,"INCLINATION":73.9316,"RA_OF_ASC_NODE":19.624,"ARG_OF_PERICENTER":113.1993,"MEAN_ANOMALY":246.9803,"EPHEMERIS_TYPE":0,"CLASSIFICATION_TYPE":"U","NORAD_CAT_ID":27858,"ELEMENT_SET_NO":999,"REV_AT_EPOCH":21592,"BSTAR":0.00018401047,"MEAN_MOTION_DOT":1.4e-5,"MEAN_MOTION_DDOT":0},{"OBJECT_NAME":"SWIFT","OBJECT_ID":"2004-047A","EPOCH":"2026-03-04T19:26:53.457216","MEAN_MOTION":15.58801779,"ECCENTRICITY":0.000301,"INCLINATION":20.553,"RA_OF_ASC_NODE":264.3196,"ARG_OF_PERICENTER":328.026,"MEAN_ANOMALY":32.0001,"EPHEMERIS_TYPE":0,"CLASSIFICATION_TYPE":"U","NORAD_CAT_ID":28485,"ELEMENT_SET_NO":999,"REV_AT_EPOCH":17050,"BSTAR":0.00062838,"MEAN_MOTION_DOT":0.00051743,"MEAN_MOTION_DDOT":0},{"OBJECT_NAME":"HINODE (SOLAR-B)","OBJECT_ID":"2006-041A","EPOCH":"2026-03-04T19:14:38.677056","MEAN_MOTION":14.68465034,"ECCENTRICITY":0.0016158,"INCLINATION":98.0626,"RA_OF_ASC_NODE":81.468,"ARG_OF_PERICENTER":258.3212,"MEAN_ANOMALY":101.618,"EPHEMERIS_TYPE":0,"CLASSIFICATION_TYPE":"U","NORAD_CAT_ID":29479,"ELEMENT_SET_NO":999,"REV_AT_EPOCH":3955,"BSTAR":0.00017937,"MEAN_MOTION_DOT":9.91e-6,"MEAN_MOTION_DDOT":0},{"OBJECT_NAME":"SHIJIAN-6 02A (SJ-6 02A)","OBJECT_ID":"2006-046A","EPOCH":"2026-03-04T21:24:26.360064","MEAN_MOTION":15.15611758,"ECCENTRICITY":0.0004578,"INCLINATION":97.6506,"RA_OF_ASC_NODE":104.1991,"ARG_OF_PERICENTER":124.3841,"MEAN_ANOMALY":235.7825,"EPHEMERIS_TYPE":0,"CLASSIFICATION_TYPE":"U","NORAD_CAT_ID":29505,"ELEMENT_SET_NO":999,"REV_AT_EPOCH":5646,"BSTAR":0.00025167,"MEAN_MOTION_DOT":4.713e-5,"MEAN_MOTION_DDOT":0}]
